[{"OBJECT_NAME":"LEMUR-2-GRAM-E-SUE","OBJECT_ID":"2026-004H","EPOCH":"2026-03-09T22:14:14.369280","MEAN_MOTION":14.87820333,"ECCENTRICITY":0.00087695,"INCLINATION":97.7976,"RA_OF_ASC_NODE":69.0865,"ARG_OF_PERICENTER":107.9643,"MEAN_ANOMALY":252.2531,"EPHEMERIS_TYPE":0,"CLASSIFICATION_TYPE":"U","NORAD_CAT_ID":67370,"ELEMENT_SET_NO":999,"REV_AT_EPOCH":853,"BSTAR":0.00070013244,"MEAN_MOTION_DOT":6.35e-5,"MEAN_MOTION_DDOT":0},{"OBJECT_NAME":"FENGYUN 1C DEB","OBJECT_ID":"1999-025UF","EPOCH":"2026-03-09T22:33:52.472160","MEAN_MOTION":14.89836885,"ECCENTRICITY":0.00149546,"INCLINATION":98.7769,"RA_OF_ASC_NODE":231.5706,"ARG_OF_PERICENTER":146.9126,"MEAN_ANOMALY":336.9385,"EPHEMERIS_TYPE":0,"CLASSIFICATION_TYPE":"U","NORAD_CAT_ID":30174,"ELEMENT_SET_NO":999,"REV_AT_EPOCH":99662,"BSTAR":0.0060884944,"MEAN_MOTION_DOT":0.00059008,"MEAN_MOTION_DDOT":0}]
